[{"OBJECT_NAME":"YAOGAN-39 03C","OBJECT_ID":"2023-152E","EPOCH":"2026-03-09T18:54:59.298048","MEAN_MOTION":15.17057677,"ECCENTRICITY":0.00104072,"INCLINATION":34.9896,"RA_OF_ASC_NODE":195.9796,"ARG_OF_PERICENTER":330.7235,"MEAN_ANOMALY":29.2893,"EPHEMERIS_TYPE":0,"CLASSIFICATION_TYPE":"U","NORAD_CAT_ID":57990,"ELEMENT_SET_NO":999,"REV_AT_EPOCH":13505,"BSTAR":0.00036411545,"MEAN_MOTION_DOT":7.356e-5,"MEAN_MOTION_DDOT":0},{"OBJECT_NAME":"OBJECT B","OBJECT_ID":"2024-105B","EPOCH":"2026-03-09T23:14:43.984032","MEAN_MOTION":15.17318063,"ECCENTRICITY":0.00110488,"INCLINATION":97.5903,"RA_OF_ASC_NODE":84.1254,"ARG_OF_PERICENTER":221.685,"MEAN_ANOMALY":138.3542,"EPHEMERIS_TYPE":0,"CLASSIFICATION_TYPE":"U","NORAD_CAT_ID":59918,"ELEMENT_SET_NO":999,"REV_AT_EPOCH":9799,"BSTAR":0.00069707648,"MEAN_MOTION_DOT":0.00013867,"MEAN_MOTION_DDOT":0}]
